*******************************************************************************
Ephemeris / WWW_USER Mon Mar 24 08:44:07 2025 Pasadena, USA      / Horizons    
*******************************************************************************
Target body name: (2018 OZ)                       {source: JPL#6}
Center body name: Earth (399)                     {source: DE441}
Center-site name: Mauna Kea
*******************************************************************************
Start time      : A.D. 2018-Nov-23 03:51:00.0000 UT      
Stop  time      : A.D. 2018-Nov-23 16:25:00.0000 UT      
Step-size       : 1 minutes
*******************************************************************************
Target pole/equ : undefined
Target radii    : undefined                                                    
Center geodetic : 204.5278, 19.8260847, 4.21024   {E-lon(deg),Lat(deg),Alt(km)}
Center cylindric: 204.5278, 6006.35451, 2151.0229 {E-lon(deg),Dxy(km),Dz(km)}
Center pole/equ : ITRF93                          {East-longitude positive}
Center radii    : 6378.137, 6378.137, 6356.752 km {Equator_a, b, pole_c}       
Target primary  : Sun
Vis. interferer : MOON (R_eq= 1737.400) km        {source: DE441}
Rel. light bend : Sun                             {source: DE441}
Rel. lght bnd GM: 1.3271E+11 km^3/s^2                                          
Small-body perts: Yes                             {source: SB441-N16}
Atmos refraction: NO (AIRLESS)
RA format       : HMS
Time format     : CAL 
Calendar mode   : Mixed Julian/Gregorian
RTS-only print  : NO       
EOP file        : eop.250321.p250617                                           
EOP coverage    : DATA-BASED 1962-JAN-20 TO 2025-MAR-21. PREDICTS-> 2025-JUN-16
Units conversion: 1 au= 149597870.700 km, c= 299792.458 km/s, 1 day= 86400.0 s 
Table cut-offs 1: Elevation (-90.0deg=NO ),Airmass (>38.000=NO), Daylight (YES)
Table cut-offs 2: Solar elongation (  0.0,180.0=NO ),Local Hour Angle( 0.0=NO )
Table cut-offs 3: RA/DEC angular rate (     0.0=NO )                           
*******************************************************************************
Initial IAU76/J2000 heliocentric ecliptic osculating elements (au, days, deg.):
  EPOCH=  2458323.5 ! 2018-Jul-24.00 (TDB)         Residual RMS= .14478        
   EC= .2444891433359997   QR= .7813773137930096   TP= 2458414.1453434308      
   OM= 132.5941973996665   W=  282.5797798661226   IN= 11.86066121595313       
  Equivalent ICRF heliocentric cartesian coordinates (au, au/d):
   X= 5.818664496311505E-01  Y=-8.413793559776328E-01  Z=-3.233166781784031E-01
  VX= 1.092981696788880E-02 VY= 1.198494789184266E-02 VZ= 1.554952570596135E-03
Asteroid physical parameters (km, seconds, rotational period in hours):        
   GM= n.a.                RAD= n.a.               ROTPER= n.a.                
   H= 24.9                 G= .150                 B-V= n.a.                   
                           ALBEDO= n.a.            STYP= n.a.                  
*******************************************************************************
 Date__(UT)__HR:MN     R.A._________(ICRF)_________DEC
******************************************************
$$SOE
 2018-Nov-23 12:03  m  12 07 00.555799 -08 10 30.02568
 2018-Nov-23 12:04  m  12 07 00.697904 -08 10 30.05277
 2018-Nov-23 12:05  m  12 07 00.839994 -08 10 30.07988
 2018-Nov-23 12:06  m  12 07 00.982069 -08 10 30.10699
 2018-Nov-23 12:07  m  12 07 01.124128 -08 10 30.13410
 2018-Nov-23 12:08  m  12 07 01.266172 -08 10 30.16123
 2018-Nov-23 12:09  m  12 07 01.408201 -08 10 30.18836
 2018-Nov-23 12:10  m  12 07 01.550214 -08 10 30.21549
 2018-Nov-23 12:11  m  12 07 01.692212 -08 10 30.24263
 2018-Nov-23 12:12  m  12 07 01.834195 -08 10 30.26978
 2018-Nov-23 12:13  m  12 07 01.976163 -08 10 30.29693
 2018-Nov-23 12:14  m  12 07 02.118116 -08 10 30.32409
 2018-Nov-23 12:15  m  12 07 02.260053 -08 10 30.35125
 2018-Nov-23 12:16  m  12 07 02.401975 -08 10 30.37842
 2018-Nov-23 12:17  m  12 07 02.543881 -08 10 30.40559
 2018-Nov-23 12:18  m  12 07 02.685772 -08 10 30.43277
 2018-Nov-23 12:19  m  12 07 02.827648 -08 10 30.45995
 2018-Nov-23 12:20  m  12 07 02.969509 -08 10 30.48714
 2018-Nov-23 12:21  r  12 07 03.111355 -08 10 30.51433
 2018-Nov-23 12:22  m  12 07 03.253185 -08 10 30.54153
 2018-Nov-23 12:23  m  12 07 03.395000 -08 10 30.56873
 2018-Nov-23 12:24  m  12 07 03.536799 -08 10 30.59593
 2018-Nov-23 12:25  m  12 07 03.678584 -08 10 30.62314
 2018-Nov-23 12:26  m  12 07 03.820353 -08 10 30.65035
 2018-Nov-23 12:27  m  12 07 03.962107 -08 10 30.67757
 2018-Nov-23 12:28  m  12 07 04.103845 -08 10 30.70478
 2018-Nov-23 12:29  m  12 07 04.245568 -08 10 30.73201
 2018-Nov-23 12:30  m  12 07 04.387276 -08 10 30.75923
 2018-Nov-23 12:31  m  12 07 04.528969 -08 10 30.78646
 2018-Nov-23 12:32  m  12 07 04.670647 -08 10 30.81369
 2018-Nov-23 12:33  m  12 07 04.812309 -08 10 30.84093
 2018-Nov-23 12:34  m  12 07 04.953956 -08 10 30.86816
 2018-Nov-23 12:35  m  12 07 05.095588 -08 10 30.89540
 2018-Nov-23 12:36  m  12 07 05.237204 -08 10 30.92264
 2018-Nov-23 12:37  m  12 07 05.378805 -08 10 30.94989
 2018-Nov-23 12:38  m  12 07 05.520391 -08 10 30.97713
 2018-Nov-23 12:39  m  12 07 05.661962 -08 10 31.00438
 2018-Nov-23 12:40  m  12 07 05.803518 -08 10 31.03163
 2018-Nov-23 12:41  m  12 07 05.945058 -08 10 31.05888
 2018-Nov-23 12:42  m  12 07 06.086583 -08 10 31.08613
 2018-Nov-23 12:43  m  12 07 06.228093 -08 10 31.11339
 2018-Nov-23 12:44  m  12 07 06.369587 -08 10 31.14064
 2018-Nov-23 12:45  m  12 07 06.511067 -08 10 31.16790
 2018-Nov-23 12:46  m  12 07 06.652531 -08 10 31.19516
 2018-Nov-23 12:47  m  12 07 06.793980 -08 10 31.22241
 2018-Nov-23 12:48  m  12 07 06.935414 -08 10 31.24967
 2018-Nov-23 12:49  m  12 07 07.076833 -08 10 31.27693
 2018-Nov-23 12:50  m  12 07 07.218237 -08 10 31.30419
 2018-Nov-23 12:51  m  12 07 07.359625 -08 10 31.33145
 2018-Nov-23 12:52  m  12 07 07.500999 -08 10 31.35871
 2018-Nov-23 12:53  m  12 07 07.642357 -08 10 31.38597
 2018-Nov-23 12:54  m  12 07 07.783700 -08 10 31.41323
 2018-Nov-23 12:55  m  12 07 07.925028 -08 10 31.44049
 2018-Nov-23 12:56  m  12 07 08.066341 -08 10 31.46774
 2018-Nov-23 12:57  m  12 07 08.207639 -08 10 31.49500
 2018-Nov-23 12:58  m  12 07 08.348922 -08 10 31.52226
 2018-Nov-23 12:59  m  12 07 08.490189 -08 10 31.54951
 2018-Nov-23 13:00  m  12 07 08.631442 -08 10 31.57677
 2018-Nov-23 13:01  m  12 07 08.772680 -08 10 31.60402
 2018-Nov-23 13:02  m  12 07 08.913902 -08 10 31.63127
 2018-Nov-23 13:03  m  12 07 09.055110 -08 10 31.65852
 2018-Nov-23 13:04  m  12 07 09.196302 -08 10 31.68577
 2018-Nov-23 13:05  m  12 07 09.337480 -08 10 31.71302
 2018-Nov-23 13:06  m  12 07 09.478642 -08 10 31.74027
 2018-Nov-23 13:07  m  12 07 09.619790 -08 10 31.76751
 2018-Nov-23 13:08  m  12 07 09.760923 -08 10 31.79475
 2018-Nov-23 13:09  m  12 07 09.902040 -08 10 31.82199
 2018-Nov-23 13:10  m  12 07 10.043143 -08 10 31.84922
 2018-Nov-23 13:11  m  12 07 10.184231 -08 10 31.87646
 2018-Nov-23 13:12  m  12 07 10.325304 -08 10 31.90369
 2018-Nov-23 13:13  m  12 07 10.466362 -08 10 31.93092
 2018-Nov-23 13:14  m  12 07 10.607405 -08 10 31.95814
 2018-Nov-23 13:15  m  12 07 10.748434 -08 10 31.98536
 2018-Nov-23 13:16  m  12 07 10.889447 -08 10 32.01258
 2018-Nov-23 13:17  m  12 07 11.030446 -08 10 32.03980
 2018-Nov-23 13:18  m  12 07 11.171430 -08 10 32.06701
 2018-Nov-23 13:19  m  12 07 11.312399 -08 10 32.09421
 2018-Nov-23 13:20  m  12 07 11.453354 -08 10 32.12142
 2018-Nov-23 13:21  m  12 07 11.594293 -08 10 32.14862
 2018-Nov-23 13:22  m  12 07 11.735218 -08 10 32.17581
 2018-Nov-23 13:23  m  12 07 11.876128 -08 10 32.20300
 2018-Nov-23 13:24  m  12 07 12.017024 -08 10 32.23019
 2018-Nov-23 13:25  m  12 07 12.157905 -08 10 32.25737
 2018-Nov-23 13:26  m  12 07 12.298771 -08 10 32.28455
 2018-Nov-23 13:27  m  12 07 12.439623 -08 10 32.31172
 2018-Nov-23 13:28  m  12 07 12.580459 -08 10 32.33889
 2018-Nov-23 13:29  m  12 07 12.721282 -08 10 32.36605
 2018-Nov-23 13:30  m  12 07 12.862089 -08 10 32.39321
 2018-Nov-23 13:31  m  12 07 13.002883 -08 10 32.42036
 2018-Nov-23 13:32  m  12 07 13.143661 -08 10 32.44751
 2018-Nov-23 13:33  m  12 07 13.284425 -08 10 32.47465
 2018-Nov-23 13:34  m  12 07 13.425175 -08 10 32.50178
 2018-Nov-23 13:35  m  12 07 13.565910 -08 10 32.52891
 2018-Nov-23 13:36  m  12 07 13.706631 -08 10 32.55604
 2018-Nov-23 13:37  m  12 07 13.847337 -08 10 32.58315
 2018-Nov-23 13:38  m  12 07 13.988029 -08 10 32.61026
 2018-Nov-23 13:39  m  12 07 14.128706 -08 10 32.63737
 2018-Nov-23 13:40  m  12 07 14.269369 -08 10 32.66447
 2018-Nov-23 13:41  m  12 07 14.410018 -08 10 32.69156
 2018-Nov-23 13:42  m  12 07 14.550653 -08 10 32.71864
 2018-Nov-23 13:43  m  12 07 14.691273 -08 10 32.74572
 2018-Nov-23 13:44  m  12 07 14.831879 -08 10 32.77279
 2018-Nov-23 13:45  m  12 07 14.972470 -08 10 32.79985
 2018-Nov-23 13:46  m  12 07 15.113048 -08 10 32.82690
 2018-Nov-23 13:47  m  12 07 15.253611 -08 10 32.85395
 2018-Nov-23 13:48  m  12 07 15.394160 -08 10 32.88099
 2018-Nov-23 13:49  m  12 07 15.534695 -08 10 32.90802
 2018-Nov-23 13:50  m  12 07 15.675215 -08 10 32.93505
 2018-Nov-23 13:51  m  12 07 15.815722 -08 10 32.96206
 2018-Nov-23 13:52  m  12 07 15.956214 -08 10 32.98907
 2018-Nov-23 13:53  m  12 07 16.096693 -08 10 33.01607
 2018-Nov-23 13:54  m  12 07 16.237157 -08 10 33.04306
 2018-Nov-23 13:55  m  12 07 16.377608 -08 10 33.07004
 2018-Nov-23 13:56  m  12 07 16.518044 -08 10 33.09702
 2018-Nov-23 13:57  m  12 07 16.658467 -08 10 33.12398
 2018-Nov-23 13:58  m  12 07 16.798875 -08 10 33.15094
 2018-Nov-23 13:59  m  12 07 16.939270 -08 10 33.17788
 2018-Nov-23 14:00  m  12 07 17.079651 -08 10 33.20482
 2018-Nov-23 14:01  m  12 07 17.220018 -08 10 33.23175
 2018-Nov-23 14:02  m  12 07 17.360371 -08 10 33.25867
 2018-Nov-23 14:03  m  12 07 17.500711 -08 10 33.28558
 2018-Nov-23 14:04  m  12 07 17.641037 -08 10 33.31248
 2018-Nov-23 14:05  m  12 07 17.781349 -08 10 33.33936
